[{"OBJECT_NAME":"ONEWEB-0495","OBJECT_ID":"2022-138C","EPOCH":"2026-02-12T19:09:24.588864","MEAN_MOTION":13.19726208,"ECCENTRICITY":0.00012059,"INCLINATION":87.9253,"RA_OF_ASC_NODE":329.7382,"ARG_OF_PERICENTER":85.0115,"MEAN_ANOMALY":275.1156,"EPHEMERIS_TYPE":0,"CLASSIFICATION_TYPE":"U","NORAD_CAT_ID":54115,"ELEMENT_SET_NO":999,"REV_AT_EPOCH":16041,"BSTAR":0.00012055421,"MEAN_MOTION_DOT":6.1e-7,"MEAN_MOTION_DDOT":0},{"OBJECT_NAME":"ONEWEB-0497","OBJECT_ID":"2022-138D","EPOCH":"2026-02-12T19:27:35.063136","MEAN_MOTION":13.19723694,"ECCENTRICITY":0.00017209,"INCLINATION":87.9252,"RA_OF_ASC_NODE":329.726,"ARG_OF_PERICENTER":83.5476,"MEAN_ANOMALY":276.5852,"EPHEMERIS_TYPE":0,"CLASSIFICATION_TYPE":"U","NORAD_CAT_ID":54116,"ELEMENT_SET_NO":999,"REV_AT_EPOCH":16040,"BSTAR":6.5697917e-5,"MEAN_MOTION_DOT":3.9e-7,"MEAN_MOTION_DDOT":0},{"OBJECT_NAME":"ONEWEB-0499","OBJECT_ID":"2022-138E","EPOCH":"2026-02-12T19:03:41.779584","MEAN_MOTION":13.19728133,"ECCENTRICITY":0.00016213,"INCLINATION":87.9254,"RA_OF_ASC_NODE":329.7392,"ARG_OF_PERICENTER":68.3823,"MEAN_ANOMALY":291.7482,"EPHEMERIS_TYPE":0,"CLASSIFICATION_TYPE":"U","NORAD_CAT_ID":54117,"ELEMENT_SET_NO":999,"REV_AT_EPOCH":16041,"BSTAR":5.8189618e-5,"MEAN_MOTION_DOT":3.6e-7,"MEAN_MOTION_DDOT":0},{"OBJECT_NAME":"ONEWEB-0500","OBJECT_ID":"2022-138F","EPOCH":"2026-02-13T04:13:00.490368","MEAN_MOTION":13.19724998,"ECCENTRICITY":0.000184,"INCLINATION":87.9255,"RA_OF_ASC_NODE":329.6528,"ARG_OF_PERICENTER":79.7103,"MEAN_ANOMALY":280.4237,"EPHEMERIS_TYPE":0,"CLASSIFICATION_TYPE":"U","NORAD_CAT_ID":54118,"ELEMENT_SET_NO":999,"REV_AT_EPOCH":16047,"BSTAR":0.00013692,"MEAN_MOTION_DOT":6.8e-7,"MEAN_MOTION_DDOT":0},{"OBJECT_NAME":"ONEWEB-0501","OBJECT_ID":"2022-138G","EPOCH":"2026-02-12T19:50:20.447520","MEAN_MOTION":13.1972353,"ECCENTRICITY":0.00014145,"INCLINATION":87.9249,"RA_OF_ASC_NODE":329.7234,"ARG_OF_PERICENTER":81.6629,"MEAN_ANOMALY":278.4664,"EPHEMERIS_TYPE":0,"CLASSIFICATION_TYPE":"U","NORAD_CAT_ID":54119,"ELEMENT_SET_NO":999,"REV_AT_EPOCH":16040,"BSTAR":7.7499213e-5,"MEAN_MOTION_DOT":4.4e-7,"MEAN_MOTION_DDOT":0},{"OBJECT_NAME":"ONEWEB-0502","OBJECT_ID":"2022-138H","EPOCH":"2026-02-12T19:29:51.470592","MEAN_MOTION":13.19723749,"ECCENTRICITY":0.00015378,"INCLINATION":87.9262,"RA_OF_ASC_NODE":329.709,"ARG_OF_PERICENTER":77.0563,"MEAN_ANOMALY":283.0741,"EPHEMERIS_TYPE":0,"CLASSIFICATION_TYPE":"U","NORAD_CAT_ID":54120,"ELEMENT_SET_NO":999,"REV_AT_EPOCH":16042,"BSTAR":0.0001381926,"MEAN_MOTION_DOT":6.8e-7,"MEAN_MOTION_DDOT":0},{"OBJECT_NAME":"ONEWEB-0503","OBJECT_ID":"2022-138J","EPOCH":"2026-02-12T19:13:56.309088","MEAN_MOTION":13.19723587,"ECCENTRICITY":0.00018222,"INCLINATION":87.9262,"RA_OF_ASC_NODE":329.7146,"ARG_OF_PERICENTER":68.7802,"MEAN_ANOMALY":291.3526,"EPHEMERIS_TYPE":0,"CLASSIFICATION_TYPE":"U","NORAD_CAT_ID":54121,"ELEMENT_SET_NO":999,"REV_AT_EPOCH":16041,"BSTAR":0.00010576192,"MEAN_MOTION_DOT":5.5e-7,"MEAN_MOTION_DDOT":0},{"OBJECT_NAME":"ONEWEB-0504","OBJECT_ID":"2022-138K","EPOCH":"2026-02-12T18:55:45.349248","MEAN_MOTION":13.19725013,"ECCENTRICITY":0.00015185,"INCLINATION":87.9244,"RA_OF_ASC_NODE":329.7304,"ARG_OF_PERICENTER":75.2045,"MEAN_ANOMALY":284.9256,"EPHEMERIS_TYPE":0,"CLASSIFICATION_TYPE":"U","NORAD_CAT_ID":54122,"ELEMENT_SET_NO":999,"REV_AT_EPOCH":16042,"BSTAR":-0.00046351151,"MEAN_MOTION_DOT":-1.73e-6,"MEAN_MOTION_DDOT":0},{"OBJECT_NAME":"ONEWEB-0505","OBJECT_ID":"2022-138L","EPOCH":"2026-02-12T20:40:21.937728","MEAN_MOTION":13.19725093,"ECCENTRICITY":0.0001299,"INCLINATION":87.9256,"RA_OF_ASC_NODE":329.7098,"ARG_OF_PERICENTER":74.9699,"MEAN_ANOMALY":285.1578,"EPHEMERIS_TYPE":0,"CLASSIFICATION_TYPE":"U","NORAD_CAT_ID":54123,"ELEMENT_SET_NO":999,"REV_AT_EPOCH":16041,"BSTAR":-0.00073741,"MEAN_MOTION_DOT":-2.82e-6,"MEAN_MOTION_DDOT":0},{"OBJECT_NAME":"ONEWEB-0506","OBJECT_ID":"2022-138M","EPOCH":"2026-02-12T20:03:59.981760","MEAN_MOTION":13.19724533,"ECCENTRICITY":0.0001406,"INCLINATION":87.9254,"RA_OF_ASC_NODE":329.712,"ARG_OF_PERICENTER":78.9139,"MEAN_ANOMALY":281.2152,"EPHEMERIS_TYPE":0,"CLASSIFICATION_TYPE":"U","NORAD_CAT_ID":54124,"ELEMENT_SET_NO":999,"REV_AT_EPOCH":16040,"BSTAR":-0.00062836,"MEAN_MOTION_DOT":-2.39e-6,"MEAN_MOTION_DDOT":0},{"OBJECT_NAME":"ONEWEB-0507","OBJECT_ID":"2022-138N","EPOCH":"2026-02-13T03:50:15.767808","MEAN_MOTION":13.19724069,"ECCENTRICITY":0.0001585,"INCLINATION":87.9246,"RA_OF_ASC_NODE":329.6727,"ARG_OF_PERICENTER":84.4156,"MEAN_ANOMALY":275.7157,"EPHEMERIS_TYPE":0,"CLASSIFICATION_TYPE":"U","NORAD_CAT_ID":54125,"ELEMENT_SET_NO":999,"REV_AT_EPOCH":16049,"BSTAR":-3.4585e-5,"MEAN_MOTION_DOT":-1.0e-8,"MEAN_MOTION_DDOT":0},{"OBJECT_NAME":"ONEWEB-0508","OBJECT_ID":"2022-138P","EPOCH":"2026-02-13T03:45:43.504128","MEAN_MOTION":13.19726543,"ECCENTRICITY":0.0001404,"INCLINATION":87.9252,"RA_OF_ASC_NODE":329.6711,"ARG_OF_PERICENTER":91.8253,"MEAN_ANOMALY":268.304,"EPHEMERIS_TYPE":0,"CLASSIFICATION_TYPE":"U","NORAD_CAT_ID":54126,"ELEMENT_SET_NO":999,"REV_AT_EPOCH":16047,"BSTAR":-0.00019179,"MEAN_MOTION_DOT":-6.4e-7,"MEAN_MOTION_DDOT":0},{"OBJECT_NAME":"ONEWEB-0509","OBJECT_ID":"2022-138Q","EPOCH":"2026-02-12T19:52:36.696864","MEAN_MOTION":13.19724634,"ECCENTRICITY":0.00016315,"INCLINATION":87.9258,"RA_OF_ASC_NODE":329.7127,"ARG_OF_PERICENTER":79.3307,"MEAN_ANOMALY":280.801,"EPHEMERIS_TYPE":0,"CLASSIFICATION_TYPE":"U","NORAD_CAT_ID":54127,"ELEMENT_SET_NO":999,"REV_AT_EPOCH":16040,"BSTAR":4.6532802e-5,"MEAN_MOTION_DOT":3.2e-7,"MEAN_MOTION_DDOT":0},{"OBJECT_NAME":"ONEWEB-0510","OBJECT_ID":"2022-138R","EPOCH":"2026-02-13T02:49:22.263456","MEAN_MOTION":13.20771751,"ECCENTRICITY":0.000212,"INCLINATION":87.9214,"RA_OF_ASC_NODE":299.2002,"ARG_OF_PERICENTER":76.1472,"MEAN_ANOMALY":283.9897,"EPHEMERIS_TYPE":0,"CLASSIFICATION_TYPE":"U","NORAD_CAT_ID":54128,"ELEMENT_SET_NO":999,"REV_AT_EPOCH":16290,"BSTAR":-0.00022811,"MEAN_MOTION_DOT":-8.0e-7,"MEAN_MOTION_DDOT":0},{"OBJECT_NAME":"ONEWEB-0511","OBJECT_ID":"2022-138S","EPOCH":"2026-02-12T19:48:03.844800","MEAN_MOTION":13.19723983,"ECCENTRICITY":0.0001753,"INCLINATION":87.9261,"RA_OF_ASC_NODE":329.7182,"ARG_OF_PERICENTER":68.9235,"MEAN_ANOMALY":291.2085,"EPHEMERIS_TYPE":0,"CLASSIFICATION_TYPE":"U","NORAD_CAT_ID":54129,"ELEMENT_SET_NO":999,"REV_AT_EPOCH":16043,"BSTAR":5.864209e-5,"MEAN_MOTION_DOT":3.6e-7,"MEAN_MOTION_DDOT":0},{"OBJECT_NAME":"ONEWEB-0512","OBJECT_ID":"2022-138T","EPOCH":"2026-02-12T19:36:42.611904","MEAN_MOTION":13.19725957,"ECCENTRICITY":0.00013953,"INCLINATION":87.9249,"RA_OF_ASC_NODE":329.7364,"ARG_OF_PERICENTER":76.2273,"MEAN_ANOMALY":283.9015,"EPHEMERIS_TYPE":0,"CLASSIFICATION_TYPE":"U","NORAD_CAT_ID":54130,"ELEMENT_SET_NO":999,"REV_AT_EPOCH":16040,"BSTAR":0.00020815975,"MEAN_MOTION_DOT":9.6e-7,"MEAN_MOTION_DDOT":0},{"OBJECT_NAME":"ONEWEB-0513","OBJECT_ID":"2022-138U","EPOCH":"2026-02-13T04:14:25.970208","MEAN_MOTION":13.20260542,"ECCENTRICITY":0.0001087,"INCLINATION":87.9263,"RA_OF_ASC_NODE":329.6222,"ARG_OF_PERICENTER":54.2801,"MEAN_ANOMALY":305.8433,"EPHEMERIS_TYPE":0,"CLASSIFICATION_TYPE":"U","NORAD_CAT_ID":54131,"ELEMENT_SET_NO":999,"REV_AT_EPOCH":16035,"BSTAR":0.00011084,"MEAN_MOTION_DOT":5.8e-7,"MEAN_MOTION_DDOT":0}]
