ONEWEB-0495             
1 54115U 22138C   26043.79820126  .00000061  00000+0  12055-3 0  9994
2 54115  87.9253 329.7382 0001205  85.0115 275.1156 13.19726208160412
ONEWEB-0497             
1 54116U 22138D   26043.81082249  .00000039  00000+0  65698-4 0  9991
2 54116  87.9252 329.7260 0001720  83.5476 276.5852 13.19723694160405
ONEWEB-0499             
1 54117U 22138E   26043.79423356  .00000036  00000+0  58190-4 0  9993
2 54117  87.9254 329.7392 0001621  68.3823 291.7482 13.19728133160413
ONEWEB-0500             
1 54118U 22138F   26044.17570012  .00000068  00000+0  13692-3 0  9991
2 54118  87.9255 329.6528 0001840  79.7103 280.4237 13.19724998160479
ONEWEB-0501             
1 54119U 22138G   26043.82662555  .00000044  00000+0  77499-4 0  9997
2 54119  87.9249 329.7234 0001414  81.6629 278.4664 13.19723530160405
ONEWEB-0502             
1 54120U 22138H   26043.81240128  .00000068  00000+0  13819-3 0  9997
2 54120  87.9262 329.7090 0001537  77.0563 283.0741 13.19723749160426
ONEWEB-0503             
1 54121U 22138J   26043.80134617  .00000055  00000+0  10576-3 0  9995
2 54121  87.9262 329.7146 0001822  68.7802 291.3526 13.19723587160411
ONEWEB-0504             
1 54122U 22138K   26043.78871932 -.00000173  00000+0 -46351-3 0  9994
2 54122  87.9244 329.7304 0001518  75.2045 284.9256 13.19725013160427
ONEWEB-0505             
1 54123U 22138L   26043.86136502 -.00000282  00000+0 -73741-3 0  9995
2 54123  87.9256 329.7098 0001299  74.9699 285.1578 13.19725093160415
ONEWEB-0506             
1 54124U 22138M   26043.83611090 -.00000239  00000+0 -62836-3 0  9998
2 54124  87.9254 329.7120 0001406  78.9139 281.2152 13.19724533160405
ONEWEB-0507             
1 54125U 22138N   26044.15990472 -.00000001  00000+0 -34585-4 0  9997
2 54125  87.9246 329.6727 0001585  84.4156 275.7157 13.19724069160494
ONEWEB-0508             
1 54126U 22138P   26044.15675352 -.00000064  00000+0 -19179-3 0  9995
2 54126  87.9252 329.6711 0001404  91.8253 268.3040 13.19726543160471
ONEWEB-0509             
1 54127U 22138Q   26043.82820251  .00000032  00000+0  46533-4 0  9997
2 54127  87.9258 329.7127 0001631  79.3307 280.8010 13.19724634160401
ONEWEB-0510             
1 54128U 22138R   26044.11761879 -.00000080  00000+0 -22811-3 0  9998
2 54128  87.9214 299.2002 0002120  76.1472 283.9897 13.20771751162907
ONEWEB-0511             
1 54129U 22138S   26043.82504450  .00000036  00000+0  58642-4 0  9997
2 54129  87.9261 329.7182 0001753  68.9235 291.2085 13.19723983160434
ONEWEB-0512             
1 54130U 22138T   26043.81715986  .00000096  00000+0  20816-3 0  9993
2 54130  87.9249 329.7364 0001395  76.2273 283.9015 13.19725957160401
ONEWEB-0513             
1 54131U 22138U   26044.17668947  .00000058  00000+0  11084-3 0  9993
2 54131  87.9263 329.6222 0001087  54.2801 305.8433 13.20260542160359
